[Satellite]
VERSION=1.1
NAME=AO-109
NICKNAME=AO-109
TLE1=1 47311U 21002C   22341.42780327  .00011526  00000+0  40977-3 0  9990
TLE2=2 47311  60.6853  69.6390 0038444  79.5148 281.0270 15.28774719104877
STATUS=0
